start=new Date('2023-02-25T00:00:00.000Z').valueOf();
sats=[{"RA_OF_ASC_NODE":"225.1602","OBJECT_NAME":"STARLINK-2296","GP_ID":"226776165","ECCENTRICITY":"0.00010350","ARG_OF_PERICENTER":"79.4341","ELEMENT_SET_NO":"999","FILE":"3835059","PERIOD":"95.593","SEMIMAJOR_AXIS":"6925.375","TLE_LINE1":"1 47998U 21024X   23055.73302224  .00002559  00000-0  19066-3 0  9990","TLE_LINE2":"2 47998  53.0510 225.1602 0001035  79.4341 280.6764 15.06391510108056","BSTAR":"0.00019066000000","APOAPSIS":"547.956","REV_AT_EPOCH":"10805","EPHEMERIS_TYPE":"0","MEAN_ELEMENT_THEORY":"SGP4","RCS_SIZE":"LARGE","INCLINATION":"53.0510","PERIAPSIS":"546.523","LAUNCH_DATE":"2021-03-24","MEAN_MOTION_DOT":"0.00002559","MEAN_MOTION":"15.06391510","DECAY_DATE":null,"CLASSIFICATION_TYPE":"U","NORAD_CAT_ID":"47998","OBJECT_ID":"2021-024X","CENTER_NAME":"EARTH","OBJECT_TYPE":"PAYLOAD","MEAN_ANOMALY":"280.6764","TIME_SYSTEM":"UTC","REF_FRAME":"TEME","MEAN_MOTION_DDOT":"0.0000000000000","SITE":"AFETR","EPOCH":"2023-02-24T17:35:33.121536","COUNTRY_CODE":"US"},{"PERIAPSIS":"546.375","INCLINATION":"53.0554","LAUNCH_DATE":"2021-03-24","MEAN_MOTION_DOT":"-0.00006705","MEAN_MOTION":"15.06371745","APOAPSIS":"548.225","REV_AT_EPOCH":"10847","EPHEMERIS_TYPE":"0","RCS_SIZE":"LARGE","MEAN_ELEMENT_THEORY":"SGP4","CLASSIFICATION_TYPE":"U","NORAD_CAT_ID":"47999","DECAY_DATE":null,"ARG_OF_PERICENTER":"68.2879","ELEMENT_SET_NO":"999","FILE":"3835059","RA_OF_ASC_NODE":"194.8434","OBJECT_NAME":"STARLINK-2218","GP_ID":"226776915","ECCENTRICITY":"0.00013360","TLE_LINE2":"2 47999  53.0554 194.8434 0001336  68.2879 291.8252 15.06371745108476","BSTAR":"-0.00043202000000","PERIOD":"95.594","SEMIMAJOR_AXIS":"6925.435","TLE_LINE1":"1 47999U 21024Y   23055.74957488 -.00006705  00000-0 -43202-3 0  9998","TIME_SYSTEM":"UTC","REF_FRAME":"TEME","MEAN_MOTION_DDOT":"0.0000000000000","EPOCH":"2023-02-24T17:59:23.269632","COUNTRY_CODE":"US","SITE":"AFETR","OBJECT_ID":"2021-024Y","CENTER_NAME":"EARTH","OBJECT_TYPE":"PAYLOAD","MEAN_ANOMALY":"291.8252"},{"RCS_SIZE":"LARGE","MEAN_ELEMENT_THEORY":"SGP4","APOAPSIS":"547.966","REV_AT_EPOCH":"10869","EPHEMERIS_TYPE":"0","MEAN_MOTION_DOT":"0.00020222","MEAN_MOTION":"15.06431000","INCLINATION":"53.0518","PERIAPSIS":"546.272","LAUNCH_DATE":"2021-03-24","DECAY_DATE":null,"CLASSIFICATION_TYPE":"U","NORAD_CAT_ID":"48000","OBJECT_NAME":"STARLINK-2270","GP_ID":"226776665","ECCENTRICITY":"0.00012230","RA_OF_ASC_NODE":"180.0626","FILE":"3835059","ELEMENT_SET_NO":"999","ARG_OF_PERICENTER":"81.6564","SEMIMAJOR_AXIS":"6925.254","TLE_LINE1":"1 48000U 21024Z   23055.74637320  .00020222  00000-0  13714-2 0  9994","PERIOD":"95.590","BSTAR":"0.00137140000000","TLE_LINE2":"2 48000  53.0518 180.0626 0001223  81.6564 278.4563 15.06431000108696","MEAN_MOTION_DDOT":"0.0000000000000","REF_FRAME":"TEME","TIME_SYSTEM":"UTC","SITE":"AFETR","EPOCH":"2023-02-24T17:54:46.644480","COUNTRY_CODE":"US","CENTER_NAME":"EARTH","OBJECT_ID":"2021-024Z","MEAN_ANOMALY":"278.4563","OBJECT_TYPE":"PAYLOAD"},{"MEAN_ANOMALY":"271.7941","OBJECT_TYPE":"PAYLOAD","CENTER_NAME":"EARTH","OBJECT_ID":"2021-024AB","SITE":"AFETR","COUNTRY_CODE":"US","EPOCH":"2023-02-24T18:34:37.852608","REF_FRAME":"TEME","MEAN_MOTION_DDOT":"0.0000000000000","TIME_SYSTEM":"UTC","TLE_LINE1":"1 48002U 21024AB  23055.77404922  .00001774  00000-0  13802-3 0  9999","SEMIMAJOR_AXIS":"6925.381","PERIOD":"95.593","TLE_LINE2":"2 48002  53.0540 200.0555 0001611  88.3232 271.7941 15.06389267108406","BSTAR":"0.00013802000000","GP_ID":"226775417","ECCENTRICITY":"0.00016110","OBJECT_NAME":"STARLINK-2265","RA_OF_ASC_NODE":"200.0555","FILE":"3835059","ELEMENT_SET_NO":"999","ARG_OF_PERICENTER":"88.3232","DECAY_DATE":null,"NORAD_CAT_ID":"48002","CLASSIFICATION_TYPE":"U","RCS_SIZE":"LARGE","MEAN_ELEMENT_THEORY":"SGP4","REV_AT_EPOCH":"10840","EPHEMERIS_TYPE":"0","APOAPSIS":"548.362","MEAN_MOTION":"15.06389267","MEAN_MOTION_DOT":"0.00001774","LAUNCH_DATE":"2021-03-24","INCLINATION":"53.0540","PERIAPSIS":"546.131"},{"OBJECT_ID":"2021-024AC","CENTER_NAME":"EARTH","OBJECT_TYPE":"PAYLOAD","MEAN_ANOMALY":"271.3647","TIME_SYSTEM":"UTC","REF_FRAME":"TEME","MEAN_MOTION_DDOT":"0.0000000000000","SITE":"AFETR","EPOCH":"2023-02-24T21:27:45.128448","COUNTRY_CODE":"US","RA_OF_ASC_NODE":"274.1950","OBJECT_NAME":"STARLINK-2263","ECCENTRICITY":"0.00014370","GP_ID":"226775666","ARG_OF_PERICENTER":"88.7507","ELEMENT_SET_NO":"999","FILE":"3835059","PERIOD":"95.592","SEMIMAJOR_AXIS":"6925.332","TLE_LINE1":"1 48003U 21024AC  23055.89427232  .00017131  00000-0  11660-2 0  9995","BSTAR":"0.00116600000000","TLE_LINE2":"2 48003  53.0523 274.1950 0001437  88.7507 271.3647 15.06405415107372","APOAPSIS":"548.192","EPHEMERIS_TYPE":"0","REV_AT_EPOCH":"10737","RCS_SIZE":"LARGE","MEAN_ELEMENT_THEORY":"SGP4","PERIAPSIS":"546.202","INCLINATION":"53.0523","LAUNCH_DATE":"2021-03-24","MEAN_MOTION_DOT":"0.00017131","MEAN_MOTION":"15.06405415","DECAY_DATE":null,"CLASSIFICATION_TYPE":"U","NORAD_CAT_ID":"48003"},{"TIME_SYSTEM":"UTC","REF_FRAME":"TEME","MEAN_MOTION_DDOT":"0.0000000000000","COUNTRY_CODE":"US","EPOCH":"2023-02-24T19:19:00.868224","SITE":"AFETR","OBJECT_ID":"2021-024AE","CENTER_NAME":"EARTH","OBJECT_TYPE":"PAYLOAD","MEAN_ANOMALY":"296.0830","LAUNCH_DATE":"2021-03-24","PERIAPSIS":"546.653","INCLINATION":"53.0537","MEAN_MOTION":"15.06394648","MEAN_MOTION_DOT":"0.00002305","EPHEMERIS_TYPE":"0","REV_AT_EPOCH":"10778","APOAPSIS":"547.807","MEAN_ELEMENT_THEORY":"SGP4","RCS_SIZE":"LARGE","NORAD_CAT_ID":"48005","CLASSIFICATION_TYPE":"U","DECAY_DATE":null,"ARG_OF_PERICENTER":"64.0245","ELEMENT_SET_NO":"999","FILE":"3835059","RA_OF_ASC_NODE":"244.5941","GP_ID":"226776416","ECCENTRICITY":"0.00008330","OBJECT_NAME":"STARLINK-2254","BSTAR":"0.00017362000000","TLE_LINE2":"2 48005  53.0537 244.5941 0000833  64.0245 296.0830 15.06394648107783","PERIOD":"95.592","TLE_LINE1":"1 48005U 21024AE  23055.80487116  .00002305  00000-0  17362-3 0  9998","SEMIMAJOR_AXIS":"6925.365"},{"OBJECT_TYPE":"PAYLOAD","MEAN_ANOMALY":"287.2286","OBJECT_ID":"2021-024AH","CENTER_NAME":"EARTH","SITE":"AFETR","COUNTRY_CODE":"US","EPOCH":"2023-02-24T19:50:08.859552","TIME_SYSTEM":"UTC","MEAN_MOTION_DDOT":"0.0000000000000","REF_FRAME":"TEME","PERIOD":"95.591","TLE_LINE1":"1 48008U 21024AH  23055.82649143  .00020883  00000-0  14162-2 0  9998","SEMIMAJOR_AXIS":"6925.310","BSTAR":"0.00141620000000","TLE_LINE2":"2 48008  53.0521 179.5009 0001190  72.8833 287.2286 15.06412434108702","RA_OF_ASC_NODE":"179.5009","ECCENTRICITY":"0.00011900","GP_ID":"226777165","OBJECT_NAME":"STARLINK-2271","ELEMENT_SET_NO":"999","ARG_OF_PERICENTER":"72.8833","FILE":"3835059","DECAY_DATE":null,"NORAD_CAT_ID":"48008","CLASSIFICATION_TYPE":"U","REV_AT_EPOCH":"10870","EPHEMERIS_TYPE":"0","APOAPSIS":"548.000","MEAN_ELEMENT_THEORY":"SGP4","RCS_SIZE":"LARGE","LAUNCH_DATE":"2021-03-24","PERIAPSIS":"546.351","INCLINATION":"53.0521","MEAN_MOTION":"15.06412434","MEAN_MOTION_DOT":"0.00020883"},{"CENTER_NAME":"EARTH","OBJECT_ID":"2021-024AJ","MEAN_ANOMALY":"290.8008","OBJECT_TYPE":"PAYLOAD","MEAN_MOTION_DDOT":"0.0000000000000","REF_FRAME":"TEME","TIME_SYSTEM":"UTC","EPOCH":"2023-02-24T19:38:56.848992","COUNTRY_CODE":"US","SITE":"AFETR","FILE":"3835059","ELEMENT_SET_NO":"999","ARG_OF_PERICENTER":"69.3106","OBJECT_NAME":"STARLINK-2153","ECCENTRICITY":"0.00011660","GP_ID":"226775917","RA_OF_ASC_NODE":"254.5365","TLE_LINE2":"2 48009  53.0505 254.5365 0001166  69.3106 290.8008 15.06407197107656","BSTAR":"0.00076355000000","SEMIMAJOR_AXIS":"6925.327","TLE_LINE1":"1 48009U 21024AJ  23055.81871353  .00011112  00000-0  76355-3 0  9996","PERIOD":"95.592","MEAN_MOTION_DOT":"0.00011112","MEAN_MOTION":"15.06407197","INCLINATION":"53.0505","PERIAPSIS":"546.384","LAUNCH_DATE":"2021-03-24","RCS_SIZE":"LARGE","MEAN_ELEMENT_THEORY":"SGP4","APOAPSIS":"547.999","EPHEMERIS_TYPE":"0","REV_AT_EPOCH":"10765","CLASSIFICATION_TYPE":"U","NORAD_CAT_ID":"48009","DECAY_DATE":null},{"REV_AT_EPOCH":"10738","EPHEMERIS_TYPE":"0","APOAPSIS":"547.888","RCS_SIZE":"LARGE","MEAN_ELEMENT_THEORY":"SGP4","LAUNCH_DATE":"2021-03-24","INCLINATION":"53.0516","PERIAPSIS":"546.548","MEAN_MOTION":"15.06398542","MEAN_MOTION_DOT":"0.00004749","DECAY_DATE":null,"NORAD_CAT_ID":"48010","CLASSIFICATION_TYPE":"U","RA_OF_ASC_NODE":"274.1814","ECCENTRICITY":"0.00009680","GP_ID":"226776166","OBJECT_NAME":"STARLINK-2226","ELEMENT_SET_NO":"999","ARG_OF_PERICENTER":"105.8283","FILE":"3835059","PERIOD":"95.592","TLE_LINE1":"1 48010U 21024AK  23055.89795158  .00004749  00000-0  33750-3 0  9994","SEMIMAJOR_AXIS":"6925.353","TLE_LINE2":"2 48010  53.0516 274.1814 0000968 105.8283 254.2813 15.06398542107389","BSTAR":"0.00033750000000","TIME_SYSTEM":"UTC","REF_FRAME":"TEME","MEAN_MOTION_DDOT":"0.0000000000000","SITE":"AFETR","COUNTRY_CODE":"US","EPOCH":"2023-02-24T21:33:03.016512","OBJECT_ID":"2021-024AK","CENTER_NAME":"EARTH","OBJECT_TYPE":"PAYLOAD","MEAN_ANOMALY":"254.2813"},{"PERIAPSIS":"546.412","INCLINATION":"53.0512","LAUNCH_DATE":"2021-03-24","MEAN_MOTION_DOT":"0.00002421","MEAN_MOTION":"15.06391169","APOAPSIS":"548.070","EPHEMERIS_TYPE":"0","REV_AT_EPOCH":"10771","MEAN_ELEMENT_THEORY":"SGP4","RCS_SIZE":"LARGE","CLASSIFICATION_TYPE":"U","NORAD_CAT_ID":"48011","DECAY_DATE":null,"ELEMENT_SET_NO":"999","ARG_OF_PERICENTER":"100.1838","FILE":"3835059","RA_OF_ASC_NODE":"254.3737","OBJECT_NAME":"STARLINK-2272","GP_ID":"226776916","ECCENTRICITY":"0.00011970","TLE_LINE2":"2 48011  53.0512 254.3737 0001197 100.1838 259.9285 15.06391169107719","BSTAR":"0.00018139000000","PERIOD":"95.593","SEMIMAJOR_AXIS":"6925.376","TLE_LINE1":"1 48011U 21024AL  23055.85461594  .00002421  00000-0  18139-3 0  9994","TIME_SYSTEM":"UTC","REF_FRAME":"TEME","MEAN_MOTION_DDOT":"0.0000000000000","EPOCH":"2023-02-24T20:30:38.817216","COUNTRY_CODE":"US","SITE":"AFETR","OBJECT_ID":"2021-024AL","CENTER_NAME":"EARTH","OBJECT_TYPE":"PAYLOAD","MEAN_ANOMALY":"259.9285"}];
